APRIZESAT 2             
1 28366U 04025A   22219.12044480  .00000032  00000+0  23713-4 0  9999
2 28366  98.1594  85.6555 0107402 182.1230 177.9516 14.36831992949091
SAUDICOMSAT 1           
1 28369U 04025D   22218.64236390  .00000173  00000+0  53315-4 0  9998
2 28369  98.4437 180.5990 0034003  23.2591 337.0134 14.52824455959137
SAUDICOMSAT 2           
1 28370U 04025E   22218.85622005  .00000087  00000+0  35858-4 0  9991
2 28370  98.5355 179.9478 0057014 207.9834 151.8290 14.47720796955925
APRIZESAT 1             
1 28372U 04025G   22219.39709352  .00000112  00000+0  40610-4 0  9995
2 28372  98.4967 180.6854 0047344 119.7143 240.8775 14.49821572957532
NANOSAT-1               
1 28493U 04049B   22218.53798482  .00000303  00000+0  53874-4 0  9990
2 28493  98.1150 319.3702 0005617 124.3355 235.8386 14.74050832947255
SAUDICOMSAT 7           
1 31119U 07012C   22219.40574752  .00000204  00000+0  49517-4 0  9990
2 31119  98.1862 164.7909 0058462 292.1043  67.3958 14.62130671816209
SAUDICOMSAT 6           
1 31121U 07012E   22219.39848553  .00000253  00000+0  62119-4 0  9991
2 31121  98.2273 160.0710 0077056  35.0597 325.5640 14.58910279814442
SAUDICOMSAT 5           
1 31124U 07012H   22219.34419247  .00000189  00000+0  45088-4 0  9997
2 31124  98.1552 166.2783 0050117 236.9738 122.6644 14.63856341817101
SAUDICOMSAT 3           
1 31125U 07012J   22219.40800512  .00000227  00000+0  50276-4 0  9992
2 31125  98.1208 167.7851 0042847 181.7302 178.3760 14.65681071818046
SAUDICOMSAT 4           
1 31127U 07012L   22219.11966143  .00000243  00000+0  58505-4 0  9996
2 31127  98.2091 162.8886 0067317 342.2094  17.6749 14.60640946815336
APRIZESAT 4             
1 35684U 09041D   22219.01986467  .00000224  00000+0  37024-4 0  9994
2 35684  98.3105 234.3979 0046611 187.9391 172.1087 14.79690633702594
APRIZESAT 3             
1 35686U 09041F   22219.13686161  .00000375  00000+0  45548-4 0  9994
2 35686  98.1066 306.9419 0072482  21.8004 338.6269 14.87995613706193
AISSAT 1                
1 36797U 10035C   22219.45355930  .00000628  00000+0  76331-4 0  9990
2 36797  98.2397  45.2692 0011166  11.7931 348.3543 14.87193380654152
S-NET D                 
1 43186U 18014G   22219.32847113  .00000754  00000+0  68635-4 0  9998
2 43186  97.6526 124.0912 0011586 124.0957 236.1367 14.98046302246532
S-NET B                 
1 43187U 18014H   22219.32866980  .00000759  00000+0  69069-4 0  9999
2 43187  97.6523 124.0405 0011596 124.0836 236.1489 14.98044169246538
S-NET A                 
1 43188U 18014J   22219.19537605  .00000750  00000+0  68297-4 0  9997
2 43188  97.6527 123.9760 0011581 124.5885 235.6431 14.98043481246513
S-NET C                 
1 43189U 18014K   22219.19616774  .00000787  00000+0  71449-4 0  9996
2 43189  97.6522 123.8985 0011609 124.5543 235.6776 14.98040691245060
SALSAT                  
1 46495U 20068K   22218.57356792  .00001295  00000+0  96244-4 0  9998
2 46495  97.7316 159.8997 0018111 106.4246 253.8972 15.04682636101724
